RS57S MONITOR-4
1 57182U 23091S   26016.60264558  .00008162  00000+0  33606-3 0  9996
2 57182  97.5314  79.1065 0011240 274.3928  85.6025 15.24330440141171
RS-38S
1 57189U 23091Z   26016.63100266  .00011194  00000+0  38087-3 0  9998
2 57189  97.5316  83.5154 0006954 247.2911 112.7595 15.30580047141468
RS49S NANOZOND-1
1 57190U 23091AA  26016.60300659  .00072868  00000+0  93349-3 0  9992
2 57190  97.5225  93.3262 0004246 228.4193 131.6699 15.58933755142120
RS27S UTMN-2
1 57203U 23091AP  26016.59714657  .00009638  00000+0  35823-3 0  9990
2 57203  97.5317  82.0188 0007567 253.2626 106.7782 15.27723163141362
METEOR-M2-4
1 59051U 24039A   26016.59540353  .00000004  00000+0  21269-4 0  9994
2 59051  98.6815 337.9666 0006025 245.7664 114.2884 14.22407426 97710
SONATE-2
1 59112U 24043Q   26016.60121908  .00023965  00000+0  47120-3 0  9994
2 59112  97.5335 159.2150 0008868  41.6165 318.5758 15.47239116104368
MO-122
1 60209U 24125G   26016.57700090  .00027557  00000+0  51159-3 0  9993
2 60209  97.2496 232.0329 0015571  58.0967 302.1796 15.48771441 85992
GRBBeta
1 60237U 24128C   26016.43455767  .00002794  00000+0  20402-3 0  9993
2 60237  61.9906  28.1456 0054950 103.2301 257.4929 15.05121839 83419
Curium One
1 60242U 24128H   26016.57883806  .00005459  00000+0  34022-3 0  9997
2 60242  61.9799  21.6599 0054863  99.7792 260.9504 15.09564637 83540
ROBUSTA-3A
1 60243U 24128J   26016.39941590  .00005264  00000+0  33475-3 0  9998
2 60243  61.9876  23.9864 0055083  97.1803 263.5558 15.08868427 83492
CatSat
1 60246U 24125J   26016.39353794  .00029452  00000+0  64669-3 0  9995
2 60246  97.2276 228.4696 0032657  23.4072 336.8654 15.43411694 83869
ARTIC WX
1 60543U 24149CD  26016.56327234  .00000582  00000+0  66235-4 0  9995
2 60543  97.6977  91.2465 0001013 222.9020 137.2119 14.89810819 76729
ARCTICSAT 1
1 61762U 24199AD  26016.63779744  .00048114  00000+0  68043-3 0  9990
2 61762  97.3197 253.3294 0009325  86.4077 273.8245 15.56339293114271
MORDOVIA-IOT
1 61765U 24199AG  26016.62163597  .00288670  00000+0  11643-2 0  9991
2 61765  97.3017 257.1456 0007469  79.9913 280.2200 15.85611251111381
HYPERVIEW-1G (RS66S)
1 61772U 24199AP  26016.61599866  .00036899  00000+0  63002-3 0  9991
2 61772  97.3179 251.5667 0011507 105.6157 254.6367 15.51157369111012
AO-123
1 61781U 24199AY  26016.60853985  .00007729  00000+0  24568-3 0  9999
2 61781  97.3228 246.6921 0015640 126.6140 233.6543 15.32779654110683
ZIMSAT 2
1 61783U 24199BA  26009.19142266  .00678273  19479-3  17950-2 0  9998
2 61783  97.2964 248.8590 0008008 103.0885 257.1284 15.94647359113345
SAMSAT-IONOSPHERE
1 61784U 24199BB  26016.61378008  .00026120  00000+0  54891-3 0  9999
2 61784  97.3199 250.0997 0012796 112.5063 247.7542 15.45227322114067
CROCUBE
1 62394U 24247T   26016.21575492  .00019751  00000+0  53698-3 0  9999
2 62394  44.9762  29.1283 0002980 333.6992  26.3743 15.37291460 59879
HADES-R (SO-124)
1 62690U 25009CK  26016.19372758  .00287604  00000+0  17377-2 0  9999
2 62690  97.3780 105.5371 0004975 291.9296  68.1441 15.76804268 56174
HYDRA-T
1 62692U 25009CM  26016.22673768  .00470096  00000+0  21050-2 0  9992
2 62692  97.3755 105.9478 0005918 292.7500  67.3144 15.82969353 56204
JINJUSat 1B
1 63210U 25052A   26016.44325187  .00011841  00000+0  43636-3 0  9994
2 63210  97.4193 273.4119 0001563 275.6496  84.4565 15.27969656 46882
NUSHSAT 1
1 63211U 25052B   26016.21590994  .00013158  00000+0  46616-3 0  9994
2 63211  97.4174 273.3596 0001615 293.3256  66.7814 15.29236720 46868
TEVEL2-4
1 63213U 25052D   26016.49494928  .00012750  00000+0  46252-3 0  9999
2 63213  97.4094 273.1150 0001482 339.1090  21.0089 15.28468225 46899
TEVEL2-5
1 63214U 25052E   26016.10945378  .00011754  00000+0  42799-3 0  9993
2 63214  97.4094 272.7137 0001591 340.1450  19.9728 15.28365792 46838
TEVEL2-6
1 63215U 25052F   26016.64158876  .00013641  00000+0  49658-3 0  9990
2 63215  97.4097 273.2302 0001596 336.1284  23.9881 15.28335909 46918
TEVEL2-1
1 63217U 25052H   26016.23366327  .00011749  00000+0  43303-3 0  9997
2 63217  97.4069 272.6054 0002296 351.1002   9.0196 15.27964797 46847
TEVEL2-3
1 63218U 25052J   26015.64292308  .00010347  00000+0  38161-3 0  9998
2 63218  97.4076 272.0266 0002447 353.7109   6.4099 15.27976744 46757
TEVEL2-2
1 63219U 25052K   26016.23438945  .00011639  00000+0  42897-3 0  9990
2 63219  97.4068 272.6070 0002334 352.1135   8.0067 15.27967006 46849
TEVEL2-9
1 63237U 25052AD  26016.42875329  .00011422  00000+0  44120-3 0  9993
2 63237  97.4133 272.4553 0006242 338.3608  21.7366 15.26403503 46838
TEVEL2-7
1 63238U 25052AE  26016.64305519  .00012470  00000+0  48381-3 0  9994
2 63238  97.4135 272.6341 0006308 337.4863  22.6098 15.26233859 46864
TEVEL2-8
1 63239U 25052AF  26016.45258097  .00011966  00000+0  46481-3 0  9990
2 63239  97.4134 272.4286 0006343 339.0251  21.0726 15.26203455 46835
HYDRA-W
1 63490U 25052BL  26016.62817026  .00071019  00000+0  13820-2 0  9996
2 63490  97.4039 276.0525 0005286 339.1757  20.9276 15.47318580 47109
HADES-ICM (SO-125)
1 63492U 25052BN  26016.22220117  .00052025  00000+0  11177-2 0  9992
2 63492  97.4051 275.2508 0006429 339.5562  20.5428 15.44496363 47013
PARUS-T2
1 64574U 25135AY  26016.57412442  .00002963  00000+0  28103-3 0  9992
2 64574  97.7607 133.0039 0002872 113.9258 246.2263 14.94312154 31273
Dragonfly
1 65729U 98067XH  26016.21636597  .00362083  59771-4  11760-2 0  9995
2 65729  51.6201 317.1747 0007947 121.1972 238.9814 15.90167081 18615
RSP-03
1 65732U 98067XL  26016.08658944  .00187469  00000+0  94425-3 0  9993
2 65732  51.6250 320.1030 0005848 100.3486 259.8175 15.80551154 18573
GHS-01
1 65733U 98067XM  26016.52960129  .01071987  64681-3  14284-2 0  9995
2 65733  51.6204 313.2448 0007809 146.0579 214.0934 16.06065606 18700
BOTAN
1 65942U 98067XP  26016.08879022  .00126501  00000+0  93501-3 0  9992
2 65942  51.6266 324.6496 0004859 111.6038 248.5479 15.72046667 15250
CEVROSAT1
1 66309U 25248S   26016.54028195  .00003359  00000+0  17267-3 0  9999
2 66309  45.4028 213.7348 0003569 267.4832  92.5645 15.18597492 11444
SPIRONE
1 66657U 25274H   26016.53807189  .00001947  00000+0  19406-3 0  9999
2 66657  97.7414 308.1557 0012895 151.9631 208.2285 14.92679646  7596
K-HERO
1 66660U 25274L   26016.58797840  .00001292  00000+0  12899-3 0  9992
2 66660  97.7422 308.2483 0014587 157.0078 203.1797 14.93170605  7606
SNUGLITE-III DURI
1 66661U 25274M   26016.51638514  .00001223  00000+0  12199-3 0  9995
2 66661  97.7418 308.1867 0015152 158.5554 201.6303 14.93291385  7594
SilverSat
1 66909U 98067XV  26016.25167523  .00067226  00000+0  90516-3 0  9992
2 66909  51.6315 330.2483 0003812  73.9906 286.1506 15.57210721  6986
SAKHACUBE-CHOLBON
1 67290U 25313AU  26016.48892955  .00007977  00000+0  35738-3 0  9991
2 67290  97.4115  93.6608 0010363 162.6052 197.5541 15.21466158  2889
QMR-KWT
1 67291U 25313AV  26016.48842972  .00009271  00000+0  41400-3 0  9998
2 67291  97.4115  93.6615 0010257 162.7326 197.4261 15.21528580  2881
Delfi-N3xt
1 39428U 13066N   26016.34335268  .00006205  00000-0  57478-3 0  9998
2 39428  97.8358 297.0557 0078501 352.7768   7.2313 14.92514313651957
IO-86
1 40931U          25360.30710720  .00000000  00000-0  12800-3 0    00
2 40931   6.0006 332.5373 0012733 338.8432   8.1437 14.79075515    01
PARUS-T1
1 98707U 25009N   25063.20000000  .00000000  00000-0  00000-0 0    08
2 98707  97.4430 144.9801 0003811 149.1702 136.3402 15.16239457    06
T.MicroSat-1
1 98515U 25276Y   25347.12519372 +.00009703 +00000+0 +47621-3 0 00218
2 98515  97.4377  58.8963 0002080  99.7173 260.4296 15.18293117002180
GALAPAGOS
1 67279U 25313AH  26011.63211176  .00008600  00000-0  39840-3 0  9993
2 67279  97.4105  88.8588 0014683 187.8326 172.2683 15.20240519  2146
CORIOLIS
1 27640U 03001A   26017.61094256  .00000121  00000+0  77690-4 0  9998
2 27640  98.7145  26.7858 0013022 288.0902  71.8856 14.19888420192853
